0 IRIDIUM 144
1 43249U 18030A   24002.84466412  .00000371  00000-0  12547-3 0  9990
2 43249  86.3973 305.0184 0002111  82.5439 277.5996 14.34219492301689
0 IRIDIUM 149
1 43250U 18030B   24002.78124224  .00000031  00000-0  40364-5 0  9990
2 43250  86.3971 305.0217 0001972  81.1836 278.9583 14.34218682301672
0 IRIDIUM 157
1 43251U 18030C   24002.38165889  .00000386  00000-0  13070-3 0  9994
2 43251  86.3974 305.2219 0002266  89.5038 270.6417 14.34216832301594
0 IRIDIUM 140
1 43252U 18030D   24002.33091737  .00000494  00000-0  16946-3 0  9995
2 43252  86.3973 305.2582 0002187  74.4136 285.7301 14.34216104301648
0 IRIDIUM 145
1 43253U 18030E   24002.31823107  .00000397  00000-0  13472-3 0  9991
2 43253  86.3973 305.2374 0001951  80.0604 280.0812 14.34219857301574
0 IRIDIUM 146
1 43254U 18030F   24002.36896887  .00000083  00000-0  22658-4 0  9991
2 43254  86.3973 305.2319 0001955  80.6417 279.4999 14.34215522301591
0 IRIDIUM 148
1 43255U 18030G   24002.33726189  .00000393  00000-0  13316-3 0  9990
2 43255  86.3974 305.2746 0001794  87.7576 272.3825 14.34218083301621
0 IRIDIUM 142
1 43256U 18030H   24002.79392600  .00000289  00000-0  96019-4 0  9994
2 43256  86.3969 305.0051 0001865  82.0987 278.0421 14.34219458301651
